STARLINK-1293
1 15411C 20019BD  21326.15973554  .00000376  00000-0  25163-4 0  3261
2 15411  53.0537 338.0203 0001680  57.9135 231.1189 15.06392353    17
